start=new Date('2022-10-02T00:00:00.000Z').valueOf();
sats=[{"BSTAR":"0.00004343600000","TLE_LINE2":"2 47821  53.0549 124.6547 0001299 107.5845 252.5286 15.06395444 87466","OBJECT_ID":"2021-018AL","SEMIMAJOR_AXIS":"6925.363","APOAPSIS":"548.127","RA_OF_ASC_NODE":"124.6547","NORAD_CAT_ID":"47821","MEAN_ANOMALY":"252.5286","FILE":"3588844","PERIAPSIS":"546.328","EPOCH":"2022-10-01T21:20:19.554144","CENTER_NAME":"EARTH","OBJECT_NAME":"STARLINK-2406","COUNTRY_CODE":"US","MEAN_MOTION_DDOT":"0.0000000000000","GP_ID":"213975939","MEAN_MOTION":"15.06395444","PERIOD":"95.592","ARG_OF_PERICENTER":"107.5845","DECAY_DATE":null,"ELEMENT_SET_NO":"999","REV_AT_EPOCH":"8746","REF_FRAME":"TEME","LAUNCH_DATE":"2021-03-11","CLASSIFICATION_TYPE":"U","MEAN_ELEMENT_THEORY":"SGP4","OBJECT_TYPE":"PAYLOAD","RCS_SIZE":"LARGE","SITE":"AFETR","EPHEMERIS_TYPE":"0","ECCENTRICITY":"0.00012990","TLE_LINE1":"1 47821U 21018AL  22274.88911521  .00000366  00000-0  43436-4 0  9995","TIME_SYSTEM":"UTC","INCLINATION":"53.0549","MEAN_MOTION_DOT":"0.00000366"},{"INCLINATION":"53.0527","MEAN_MOTION_DOT":"0.00005581","TIME_SYSTEM":"UTC","TLE_LINE1":"1 47822U 21018AM  22274.89830812  .00005581  00000-0  39313-3 0  9992","ECCENTRICITY":"0.00014080","SITE":"AFETR","EPHEMERIS_TYPE":"0","RCS_SIZE":"LARGE","OBJECT_TYPE":"PAYLOAD","MEAN_ELEMENT_THEORY":"SGP4","CLASSIFICATION_TYPE":"U","LAUNCH_DATE":"2021-03-11","REF_FRAME":"TEME","ELEMENT_SET_NO":"999","REV_AT_EPOCH":"8733","ARG_OF_PERICENTER":"87.8387","PERIOD":"95.591","DECAY_DATE":null,"MEAN_MOTION":"15.06414247","GP_ID":"213976689","MEAN_MOTION_DDOT":"0.0000000000000","COUNTRY_CODE":"US","EPOCH":"2022-10-01T21:33:33.821568","CENTER_NAME":"EARTH","OBJECT_NAME":"STARLINK-2407","FILE":"3588844","PERIAPSIS":"546.195","MEAN_ANOMALY":"272.2763","NORAD_CAT_ID":"47822","APOAPSIS":"548.145","RA_OF_ASC_NODE":"134.5861","OBJECT_ID":"2021-018AM","SEMIMAJOR_AXIS":"6925.305","TLE_LINE2":"2 47822  53.0527 134.5861 0001408  87.8387 272.2763 15.06414247 87333","BSTAR":"0.00039313000000"},{"SITE":"AFETR","EPHEMERIS_TYPE":"0","ECCENTRICITY":"0.00014230","RCS_SIZE":"LARGE","INCLINATION":"53.0528","MEAN_MOTION_DOT":"0.00005235","TLE_LINE1":"1 47823U 21018AN  22274.84762484  .00005235  00000-0  36998-3 0  9999","TIME_SYSTEM":"UTC","REF_FRAME":"TEME","ARG_OF_PERICENTER":"86.9756","PERIOD":"95.592","DECAY_DATE":null,"ELEMENT_SET_NO":"999","REV_AT_EPOCH":"8746","MEAN_ELEMENT_THEORY":"SGP4","OBJECT_TYPE":"PAYLOAD","LAUNCH_DATE":"2021-03-11","CLASSIFICATION_TYPE":"U","MEAN_MOTION_DDOT":"0.0000000000000","COUNTRY_CODE":"US","MEAN_MOTION":"15.06409020","GP_ID":"213976941","APOAPSIS":"548.171","RA_OF_ASC_NODE":"124.8163","TLE_LINE2":"2 47823  53.0528 124.8163 0001423  86.9756 273.1396 15.06409020 87468","BSTAR":"0.00036998000000","SEMIMAJOR_AXIS":"6925.321","OBJECT_ID":"2021-018AN","FILE":"3588844","PERIAPSIS":"546.200","EPOCH":"2022-10-01T20:20:34.786176","CENTER_NAME":"EARTH","OBJECT_NAME":"STARLINK-2408","NORAD_CAT_ID":"47823","MEAN_ANOMALY":"273.1396"},{"GP_ID":"213977691","MEAN_MOTION":"15.06403613","COUNTRY_CODE":"US","MEAN_MOTION_DDOT":"0.0000000000000","MEAN_ANOMALY":"268.8472","NORAD_CAT_ID":"47824","FILE":"3588844","PERIAPSIS":"546.410","EPOCH":"2022-10-01T20:06:00.100224","CENTER_NAME":"EARTH","OBJECT_NAME":"STARLINK-2409","BSTAR":"0.00008976100000","TLE_LINE2":"2 47824  53.0540 124.8820 0001145  91.2649 268.8472 15.06403613 87451","SEMIMAJOR_AXIS":"6925.337","OBJECT_ID":"2021-018AP","APOAPSIS":"547.995","RA_OF_ASC_NODE":"124.8820","TLE_LINE1":"1 47824U 21018AP  22274.83750116  .00001056  00000-0  89761-4 0  9992","TIME_SYSTEM":"UTC","MEAN_MOTION_DOT":"0.00001056","INCLINATION":"53.0540","RCS_SIZE":"LARGE","SITE":"AFETR","EPHEMERIS_TYPE":"0","ECCENTRICITY":"0.00011450","LAUNCH_DATE":"2021-03-11","CLASSIFICATION_TYPE":"U","MEAN_ELEMENT_THEORY":"SGP4","OBJECT_TYPE":"PAYLOAD","PERIOD":"95.592","ARG_OF_PERICENTER":"91.2649","DECAY_DATE":null,"ELEMENT_SET_NO":"999","REV_AT_EPOCH":"8745","REF_FRAME":"TEME"},{"MEAN_ELEMENT_THEORY":"SGP4","OBJECT_TYPE":"PAYLOAD","LAUNCH_DATE":"2021-03-11","CLASSIFICATION_TYPE":"U","REF_FRAME":"TEME","DECAY_DATE":null,"PERIOD":"95.592","ARG_OF_PERICENTER":"94.2185","REV_AT_EPOCH":"8746","ELEMENT_SET_NO":"999","MEAN_MOTION_DOT":"0.00000871","INCLINATION":"53.0539","TLE_LINE1":"1 47825U 21018AQ  22274.85594011  .00000871  00000-0  77348-4 0  9997","TIME_SYSTEM":"UTC","EPHEMERIS_TYPE":"0","SITE":"AFETR","ECCENTRICITY":"0.00014000","RCS_SIZE":"LARGE","PERIAPSIS":"546.258","FILE":"3588844","OBJECT_NAME":"STARLINK-2410","CENTER_NAME":"EARTH","EPOCH":"2022-10-01T20:32:33.225504","MEAN_ANOMALY":"265.8964","NORAD_CAT_ID":"47825","RA_OF_ASC_NODE":"124.7982","APOAPSIS":"548.197","TLE_LINE2":"2 47825  53.0539 124.7982 0001400  94.2185 265.8964 15.06395575 87461","BSTAR":"0.00007734800000","OBJECT_ID":"2021-018AQ","SEMIMAJOR_AXIS":"6925.362","MEAN_MOTION":"15.06395575","GP_ID":"213976439","MEAN_MOTION_DDOT":"0.0000000000000","COUNTRY_CODE":"US"},{"RA_OF_ASC_NODE":"124.8101","APOAPSIS":"548.177","TLE_LINE2":"2 47826  53.0529 124.8101 0001408  70.1777 289.9364 15.06403652 87460","BSTAR":"0.00018069000000","SEMIMAJOR_AXIS":"6925.337","OBJECT_ID":"2021-018AR","PERIAPSIS":"546.227","FILE":"3588844","CENTER_NAME":"EARTH","OBJECT_NAME":"STARLINK-2411","EPOCH":"2022-10-01T20:27:14.184864","NORAD_CAT_ID":"47826","MEAN_ANOMALY":"289.9364","MEAN_MOTION_DDOT":"0.0000000000000","COUNTRY_CODE":"US","MEAN_MOTION":"15.06403652","GP_ID":"213976190","REF_FRAME":"TEME","DECAY_DATE":null,"ARG_OF_PERICENTER":"70.1777","PERIOD":"95.592","REV_AT_EPOCH":"8746","ELEMENT_SET_NO":"999","MEAN_ELEMENT_THEORY":"SGP4","OBJECT_TYPE":"PAYLOAD","LAUNCH_DATE":"2021-03-11","CLASSIFICATION_TYPE":"U","EPHEMERIS_TYPE":"0","SITE":"AFETR","ECCENTRICITY":"0.00014080","RCS_SIZE":"LARGE","INCLINATION":"53.0529","MEAN_MOTION_DOT":"0.00002411","TLE_LINE1":"1 47826U 21018AR  22274.85224751  .00002411  00000-0  18069-3 0  9995","TIME_SYSTEM":"UTC"},{"RCS_SIZE":"LARGE","EPHEMERIS_TYPE":"0","SITE":"AFETR","ECCENTRICITY":"0.00013380","TLE_LINE1":"1 47827U 21018AS  22274.83476851  .00001828  00000-0  14156-3 0  9998","TIME_SYSTEM":"UTC","INCLINATION":"53.0531","MEAN_MOTION_DOT":"0.00001828","PERIOD":"95.592","ARG_OF_PERICENTER":"103.3752","DECAY_DATE":null,"ELEMENT_SET_NO":"999","REV_AT_EPOCH":"8765","REF_FRAME":"TEME","LAUNCH_DATE":"2021-03-11","CLASSIFICATION_TYPE":"U","MEAN_ELEMENT_THEORY":"SGP4","OBJECT_TYPE":"PAYLOAD","COUNTRY_CODE":"US","MEAN_MOTION_DDOT":"0.0000000000000","GP_ID":"213977441","MEAN_MOTION":"15.06401270","BSTAR":"0.00014156000000","TLE_LINE2":"2 47827  53.0531 115.1132 0001338 103.3752 256.7386 15.06401270 87656","OBJECT_ID":"2021-018AS","SEMIMAJOR_AXIS":"6925.345","APOAPSIS":"548.136","RA_OF_ASC_NODE":"115.1132","MEAN_ANOMALY":"256.7386","NORAD_CAT_ID":"47827","FILE":"3588844","PERIAPSIS":"546.283","EPOCH":"2022-10-01T20:02:03.999264","OBJECT_NAME":"STARLINK-2413","CENTER_NAME":"EARTH"},{"ELEMENT_SET_NO":"999","REV_AT_EPOCH":"8733","PERIOD":"95.592","ARG_OF_PERICENTER":"77.7647","DECAY_DATE":null,"REF_FRAME":"TEME","CLASSIFICATION_TYPE":"U","LAUNCH_DATE":"2021-03-11","OBJECT_TYPE":"PAYLOAD","MEAN_ELEMENT_THEORY":"SGP4","RCS_SIZE":"LARGE","ECCENTRICITY":"0.00015760","EPHEMERIS_TYPE":"0","SITE":"AFETR","TIME_SYSTEM":"UTC","TLE_LINE1":"1 47828U 21018AT  22274.90293706  .00000269  00000-0  36958-4 0  9996","MEAN_MOTION_DOT":"0.00000269","INCLINATION":"53.0554","OBJECT_ID":"2021-018AT","SEMIMAJOR_AXIS":"6925.335","TLE_LINE2":"2 47828  53.0554 134.5804 0001576  77.7647 282.3519 15.06404577 87335","BSTAR":"0.00003695800000","APOAPSIS":"548.291","RA_OF_ASC_NODE":"134.5804","MEAN_ANOMALY":"282.3519","NORAD_CAT_ID":"47828","EPOCH":"2022-10-01T21:40:13.761984","OBJECT_NAME":"STARLINK-2415","CENTER_NAME":"EARTH","FILE":"3588844","PERIAPSIS":"546.108","COUNTRY_CODE":"US","MEAN_MOTION_DDOT":"0.0000000000000","GP_ID":"213977192","MEAN_MOTION":"15.06404577"},{"RCS_SIZE":"MEDIUM","ECCENTRICITY":"0.00011770","SITE":"AFETR","EPHEMERIS_TYPE":"0","TIME_SYSTEM":"UTC","TLE_LINE1":"1 47829U 21018AU  22274.85501313  .00001821  00000-0  14108-3 0  9994","INCLINATION":"53.0542","MEAN_MOTION_DOT":"0.00001821","ELEMENT_SET_NO":"999","REV_AT_EPOCH":"8731","PERIOD":"95.592","ARG_OF_PERICENTER":"91.8019","DECAY_DATE":null,"REF_FRAME":"TEME","CLASSIFICATION_TYPE":"U","LAUNCH_DATE":"2021-03-11","OBJECT_TYPE":"PAYLOAD","MEAN_ELEMENT_THEORY":"SGP4","COUNTRY_CODE":"US","MEAN_MOTION_DDOT":"0.0000000000000","GP_ID":"213975940","MEAN_MOTION":"15.06401311","SEMIMAJOR_AXIS":"6925.345","OBJECT_ID":"2021-018AU","BSTAR":"0.00014108000000","TLE_LINE2":"2 47829  53.0542 134.7925 0001177  91.8019 268.3105 15.06401311 87312","APOAPSIS":"548.025","RA_OF_ASC_NODE":"134.7925","NORAD_CAT_ID":"47829","MEAN_ANOMALY":"268.3105","EPOCH":"2022-10-01T20:31:13.134432","CENTER_NAME":"EARTH","OBJECT_NAME":"STARLINK-2416","FILE":"3588844","PERIAPSIS":"546.394"},{"OBJECT_TYPE":"PAYLOAD","MEAN_ELEMENT_THEORY":"SGP4","CLASSIFICATION_TYPE":"U","LAUNCH_DATE":"2021-03-11","REF_FRAME":"TEME","REV_AT_EPOCH":"8731","ELEMENT_SET_NO":"999","DECAY_DATE":null,"ARG_OF_PERICENTER":"54.6183","PERIOD":"95.593","INCLINATION":"53.0531","MEAN_MOTION_DOT":"0.00001161","TIME_SYSTEM":"UTC","TLE_LINE1":"1 47830U 21018AV  22274.85133141  .00001161  00000-0  96817-4 0  9991","ECCENTRICITY":"0.00012510","EPHEMERIS_TYPE":"0","SITE":"AFETR","RCS_SIZE":"LARGE","OBJECT_NAME":"STARLINK-2419","CENTER_NAME":"EARTH","EPOCH":"2022-10-01T20:25:55.033824","PERIAPSIS":"546.383","FILE":"3588844","NORAD_CAT_ID":"47830","MEAN_ANOMALY":"305.4922","RA_OF_ASC_NODE":"134.8172","APOAPSIS":"548.116","SEMIMAJOR_AXIS":"6925.385","OBJECT_ID":"2021-018AV","BSTAR":"0.00009681700000","TLE_LINE2":"2 47830  53.0531 134.8172 0001251  54.6183 305.4922 15.06388261 87317","MEAN_MOTION":"15.06388261","GP_ID":"213976690","MEAN_MOTION_DDOT":"0.0000000000000","COUNTRY_CODE":"US"}];
